ORBCOMM FM20 [+]        
1 25416U 98046D   23307.76527642  .00001649  00000+0  62850-3 0  9992
2 25416  44.9942  95.7605 0001239 167.4207 192.6671 14.34555194319260
ORBCOMM FM16 [-]        
1 25417U 98046E   23307.90528528  .00002443  00000+0  89372-3 0  9994
2 25417  44.9938  92.0994 0004858 200.8573 159.2076 14.35288403319204
ORBCOMM FM15 [-]        
1 25418U 98046F   23307.89766803  .00002174  00000+0  80462-3 0  9995
2 25418  44.9967  95.7755 0004300 202.0576 158.0086 14.35037473319219
ORBCOMM FM14 [-]        
1 25419U 98046G   23307.89692574  .00002618  00000+0  95686-3 0  9996
2 25419  44.9957  95.1056 0003285 189.6894 305.6323 14.35155534319168
ORBCOMM FM13 [+]        
1 25420U 98046H   23307.76316380  .00001859  00000+0  70147-3 0  9993
2 25420  44.9973  99.6699 0005336 187.5203 172.5564 14.34599636318228
ORBCOMM FM21 [-]        
1 25475U 98053A   23307.78061616  .00001319  00000+0  51204-3 0  9996
2 25475  45.0085 183.7093 0000579  46.6695 313.4200 14.34617063312571
ORBCOMM FM22 [-]        
1 25476U 98053B   23307.95650989  .00001655  00000+0  62493-3 0  9998
2 25476  45.0071 180.8221 0001917 117.7585 242.3456 14.34998759312255
ORBCOMM FM23 [-]        
1 25477U 98053C   23307.94991137  .00001505  00000+0  57739-3 0  9992
2 25477  45.0085 185.3564 0001251 102.1511 257.9476 14.34596550312414
